FUNCUBE-1
1 39444U 13066AE  17277.69215308 +.00000461 +00000-0 +63844-4 0  9998
2 39444 097.6206 315.7594 0056927 267.9924 091.4770 14.81530966207233
